{
  "elements": [
    {
      "type": "node",
      "id": 2613864910,
      "lat": 41.026562,
      "lon": 21.3295834,
      "tags": {
        "internet_access": "wlan",
        "internet_access:fee": "no",
        "name": "Guesthouse",
        "tourism": "guest_house",
        "wheelchair": "no"
      }
    },
    {
      "type": "node",
      "id": 3046112441,
      "lat": 41.0298294,
      "lon": 21.3324955,
      "tags": {
        "addr:housenumber": "15",
        "addr:street": "С. Лумбарко",
        "name": "Goldy Hostel Bitola",
        "tourism": "hostel"
      }
    },
    {
      "type": "node",
      "id": 3076999334,
      "lat": 41.0276578,
      "lon": 21.3372648,
      "tags": {
        "name": "Tokin House",
        "tourism": "hotel",
        "website": "www.tokin-house.com"
      }
    },
    {
      "type": "node",
      "id": 3457036857,
      "lat": 41.0223734,
      "lon": 21.3410777,
      "tags": {
        "addr:city": "Bitola",
        "addr:street": "Никола Тесла",
        "name": "Domestika Hostel",
        "operator": "Ivo Lola Ribar",
        "phone": "+389 47 230 715",
        "tourism": "hostel",
        "website": "http://hostel-domestika-bitola.eu/"
      }
    },
    {
      "type": "node",
      "id": 4463185090,
      "lat": 41.03312,
      "lon": 21.3263622,
      "tags": {
        "tourism": "hotel"
      }
    },
    {
      "type": "node",
      "id": 5838548288,
      "lat": 41.0256315,
      "lon": 21.3312283,
      "tags": {
        "addr:housenumber": "35",
        "name": "Hotel Teatar",
        "tourism": "hotel"
      }
    },
    {
      "type": "node",
      "id": 7058905790,
      "lat": 41.0157263,
      "lon": 21.3475881,
      "tags": {
        "name": "Eri corporation Bitola",
        "tourism": "apartment"
      }
    },
    {
      "type": "node",
      "id": 9769523119,
      "lat": 41.0273377,
      "lon": 21.3370269,
      "tags": {
        "name:en": "Hotel Korzo",
        "tourism": "hotel"
      }
    }
  ]
}