{
  "elements": [
    {
      "type": "node",
      "id": 2323236971,
      "lat": 41.1414679,
      "lon": 22.5042089,
      "tags": {
        "internet_access": "wlan",
        "internet_access:fee": "no",
        "name": "Ашикот",
        "name:en": "Asikot",
        "tourism": "hotel"
      }
    },
    {
      "type": "node",
      "id": 2323236975,
      "lat": 41.1405889,
      "lon": 22.5048372,
      "tags": {
        "addr:city": "Гевгелија",
        "addr:housenumber": "110",
        "addr:street": "Маршал Тито",
        "email": "holidayhan@yahoo.com",
        "name": "Holiday Han",
        "phone": "+389 34 611 593",
        "tourism": "hotel",
        "website": "http://holidayhan.com/"
      }
    },
    {
      "type": "node",
      "id": 4437622043,
      "lat": 41.1411114,
      "lon": 22.5038741,
      "tags": {
        "name": "Apollonia Hotel",
        "operator": "Apollonia Casino",
        "tourism": "hotel"
      }
    },
    {
      "type": "node",
      "id": 5544437000,
      "lat": 41.1408672,
      "lon": 22.5124945,
      "tags": {
        "addr:housenumber": "24",
        "addr:street": "Zeleznicka",
        "description": "2nd floor apartment. Rented daily basis.",
        "name": "Magnolia Apartment",
        "phone": "+389 70 740 345",
        "tourism": "apartment"
      }
    },
    {
      "type": "node",
      "id": 5931045507,
      "lat": 41.1464743,
      "lon": 22.5047279,
      "tags": {
        "name": "Jana Apartments",
        "tourism": "guest_house"
      }
    },
    {
      "type": "node",
      "id": 5931049834,
      "lat": 41.1357078,
      "lon": 22.4908565,
      "tags": {
        "name": "Вила Катерина",
        "name:en": "Vila Katerina",
        "tourism": "guest_house"
      }
    }
  ]
}