{
  "elements": [
    {
      "type": "node",
      "id": 2835970547,
      "lat": 42.135611,
      "lon": 21.7224017,
      "tags": {
        "addr:city": "Куманово",
        "addr:street": "Иво Лола Рибар",
        "name": "Apartman",
        "phone": "078-277-048",
        "tourism": "hotel",
        "website": "https://www.pazar3.mk/mk/Listing/AdDetail/Index/1148323-LUKSUZNO-OPREMENI-STANOVI-APARTMANI"
      }
    },
    {
      "type": "node",
      "id": 3103123140,
      "lat": 42.1534515,
      "lon": 21.7301573,
      "tags": {
        "name": "Сателит",
        "name:en": "Satelit",
        "tourism": "hotel"
      }
    },
    {
      "type": "node",
      "id": 4524189289,
      "lat": 42.1373916,
      "lon": 21.7042207,
      "tags": {
        "addr:postcode": "1300",
        "addr:street": "Србо Томовиќ",
        "internet_access": "wlan",
        "name": "adra home",
        "name:en": "adra home",
        "name:mk": "adra home",
        "tourism": "guest_house"
      }
    },
    {
      "type": "node",
      "id": 5528973221,
      "lat": 42.137227,
      "lon": 21.7043546,
      "tags": {
        "addr:housenumber": "25/1-9",
        "addr:postcode": "1300",
        "addr:street": "Србо Томовиќ",
        "email": "adrsscreen@gmail.com",
        "internet_access": "wlan",
        "name": "adrsscreen home",
        "operator": "adrsscreen",
        "phone": "+38971611422",
        "tourism": "apartment",
        "website": "http://www.facebook.com"
      }
    },
    {
      "type": "node",
      "id": 8778778135,
      "lat": 42.121535,
      "lon": 21.7435248,
      "tags": {
        "addr:city": "Kumanovo",
        "addr:postcode": "1300",
        "addr:street": "Kumanovska Banja MK,",
        "brand": "Kumanovo Spa",
        "internet_access": "yes",
        "internet_access:fee": "no",
        "name": "Kumanovo Spa",
        "rooms": "21",
        "tourism": "hotel"
      }
    }
  ]
}