{
  "elements": [
    {
      "type": "node",
      "id": 1440469233,
      "lat": 41.1119117,
      "lon": 20.7944769,
      "tags": {
        "int_name": "Vila Albina",
        "name": "Вила Албина",
        "tourism": "guest_house"
      }
    },
    {
      "type": "node",
      "id": 1501849857,
      "lat": 41.1120923,
      "lon": 20.8059275,
      "tags": {
        "name": "De Lux Apartments Ohrid",
        "source": "Booking.com",
        "tourism": "hotel"
      }
    },
    {
      "type": "node",
      "id": 2377969279,
      "lat": 41.1056053,
      "lon": 20.8082706,
      "tags": {
        "name": "HOTEL GARDEN",
        "tourism": "hotel"
      }
    },
    {
      "type": "node",
      "id": 2503292107,
      "lat": 41.1202504,
      "lon": 20.7992249,
      "tags": {
        "name": "Apartmani Joce",
        "source": "survey",
        "tourism": "guest_house"
      }
    },
    {
      "type": "node",
      "id": 2614590053,
      "lat": 41.1126572,
      "lon": 20.7969076,
      "tags": {
        "addr:city": "Ohrid",
        "addr:housename": "Villa Mal Sveti Kliment",
        "addr:housenumber": "10",
        "addr:postcode": "6000",
        "addr:street": "Metodi Patce",
        "guest_house": "bed_and_breakfast",
        "int_name": "Villa Mal Sveti Kliment",
        "name": "Вила Мал Свети Климент",
        "payment:bitcoin": "yes",
        "payment:litecoin": "yes",
        "phone": "+389 46250655",
        "tourism": "guest_house",
        "website": "https://vilamalsvetikliment.com/"
      }
    },
    {
      "type": "node",
      "id": 3076974521,
      "lat": 41.114294,
      "lon": 20.79913,
      "tags": {
        "addr:housenumber": "32",
        "addr:street": "Klimentov Univerzitet",
        "name": "Apartments Stars",
        "tourism": "guest_house"
      }
    },
    {
      "type": "node",
      "id": 3076974522,
      "lat": 41.1129419,
      "lon": 20.7988751,
      "tags": {
        "name": "Hostel di Angollo",
        "tourism": "hostel"
      }
    },
    {
      "type": "node",
      "id": 3100113826,
      "lat": 41.1130555,
      "lon": 20.8016699,
      "tags": {
        "name": "DJ Apartments",
        "tourism": "guest_house"
      }
    },
    {
      "type": "node",
      "id": 3642683410,
      "lat": 41.1108779,
      "lon": 20.8038545,
      "tags": {
        "name": "Апартмани Симоноски",
        "tourism": "guest_house"
      }
    },
    {
      "type": "node",
      "id": 3826400406,
      "lat": 41.1121098,
      "lon": 20.8016881,
      "tags": {
        "name": "Ривиера",
        "name:en": "Riviera",
        "tourism": "hotel"
      }
    },
    {
      "type": "node",
      "id": 3826400420,
      "lat": 41.1099144,
      "lon": 20.8046742,
      "tags": {
        "name": "Сити Палас",
        "name:en": "City Palace",
        "tourism": "hotel"
      }
    },
    {
      "type": "node",
      "id": 4059966727,
      "lat": 41.1192679,
      "lon": 20.7845353,
      "tags": {
        "name": "Мизо",
        "name:en": "Mizo",
        "tourism": "hotel"
      }
    },
    {
      "type": "node",
      "id": 4167839093,
      "lat": 41.1114353,
      "lon": 20.794219,
      "tags": {
        "addr:city": "Ohrid",
        "addr:housenumber": "4",
        "addr:postcode": "6000",
        "addr:street": "Ilindenska",
        "brand": "Bandzo's",
        "description": "Dear travelers,  We invite you to spend your weekend/holiday in Makedonija, Europe.  Enjoying a central location in the old town of Ohrid, directly on the lake shore, the house and a garden-terrace with a private beach, excellent conditions for families. ",
        "email": "ar.ohrid@gmail.com",
        "guest_house": "guest_house",
        "internet_access": "wlan",
        "internet_access:fee": "no",
        "name": "Апартмани \"Kрај eзеро\", Охрид",
        "name:en": "\"By the Lake\" apartments, Ohrid",
        "opening_hours": "24/7",
        "operator": "Georgi Piruze",
        "phone": "+38970550590",
        "rooms": "4",
        "smoking": "outside",
        "stars": "2",
        "tourism": "guest_house",
        "website": "https://sites.google.com/site/arohrid"
      }
    },
    {
      "type": "node",
      "id": 4206877090,
      "lat": 41.1130805,
      "lon": 20.8121042,
      "tags": {
        "addr:housenumber": "14",
        "addr:street": "Лазо Трпоски",
        "name": "House Nativa",
        "tourism": "guest_house"
      }
    },
    {
      "type": "node",
      "id": 4253065397,
      "lat": 41.121256,
      "lon": 20.813226,
      "tags": {
        "addr:housenumber": "96",
        "addr:street": "Питу Гули",
        "internet_access": "wlan",
        "name": "Hostel Valentin ",
        "tourism": "hostel"
      }
    },
    {
      "type": "node",
      "id": 4264164991,
      "lat": 41.1122944,
      "lon": 20.8133442,
      "tags": {
        "addr:street": "Мирче Ацев",
        "name": "Pine House Apartment",
        "tourism": "motel"
      }
    },
    {
      "type": "node",
      "id": 4276466090,
      "lat": 41.1124995,
      "lon": 20.7988026,
      "tags": {
        "name": "Villa Square Ohrid",
        "tourism": "hotel"
      }
    },
    {
      "type": "node",
      "id": 4276466091,
      "lat": 41.11257,
      "lon": 20.7985193,
      "tags": {
        "name": "Villa Tabana",
        "tourism": "hotel"
      }
    },
    {
      "type": "node",
      "id": 4276466092,
      "lat": 41.1125176,
      "lon": 20.7982936,
      "tags": {
        "name": "Villa Harmony",
        "tourism": "hotel"
      }
    },
    {
      "type": "node",
      "id": 4277058964,
      "lat": 41.112593,
      "lon": 20.798076,
      "tags": {
        "name": "Villa De Lago",
        "tourism": "hotel"
      }
    },
    {
      "type": "node",
      "id": 4277058965,
      "lat": 41.1125227,
      "lon": 20.7978445,
      "tags": {
        "name": "Costa House",
        "tourism": "hotel"
      }
    },
    {
      "type": "node",
      "id": 4277058966,
      "lat": 41.111887,
      "lon": 20.7974658,
      "tags": {
        "int_name": "Villa St.Nicholas",
        "name": "Вила Свети Никола",
        "tourism": "hotel"
      }
    },
    {
      "type": "node",
      "id": 4278125896,
      "lat": 41.1216886,
      "lon": 20.7819966,
      "tags": {
        "name": "Maja, Anja, Zoko Relax",
        "tourism": "guest_house"
      }
    },
    {
      "type": "node",
      "id": 4281626594,
      "lat": 41.112396,
      "lon": 20.797118,
      "tags": {
        "addr:housenumber": "34",
        "addr:postcode": "6000",
        "addr:street": "Цар Самоил",
        "int_name": "Marija Apartments",
        "internet_access": "wlan",
        "name": "Апартмани Марија",
        "phone": "+389 75 285 609",
        "tourism": "hotel"
      }
    },
    {
      "type": "node",
      "id": 4453464490,
      "lat": 41.1186511,
      "lon": 20.8136777,
      "tags": {
        "name:en": "villa magdalena",
        "tourism": "hotel"
      }
    },
    {
      "type": "node",
      "id": 4471993692,
      "lat": 41.1229582,
      "lon": 20.8253145,
      "tags": {
        "name": "Doma",
        "tourism": "guest_house"
      }
    },
    {
      "type": "node",
      "id": 4547647290,
      "lat": 41.1183977,
      "lon": 20.8000512,
      "tags": {
        "tourism": "hostel"
      }
    },
    {
      "type": "node",
      "id": 4702316095,
      "lat": 41.1200679,
      "lon": 20.8019743,
      "tags": {
        "addr:city": "Ohrid",
        "addr:housenumber": "39",
        "addr:postcode": "6000",
        "addr:street": "Беќир Али Риза",
        "email": "hostelagarthaohrid@hotmail.com",
        "internet_access": "wlan",
        "name": "Agartha Hostel Ohrid",
        "name:en": "Agartha Hostel",
        "opening_hours": "24/7",
        "phone": "0038977644708",
        "smoking": "outside",
        "tourism": "hostel",
        "website": "http://www.hostelagartha.com"
      }
    },
    {
      "type": "node",
      "id": 4771599070,
      "lat": 41.1176909,
      "lon": 20.8213829,
      "tags": {
        "addr:city": "Охрид",
        "addr:housenumber": "84",
        "addr:postcode": "6000",
        "addr:street": "Момчило Јорданоски",
        "internet_access": "wlan",
        "internet_access:fee": "no",
        "name": "Guest House Hristiva",
        "smoking": "outside",
        "tourism": "guest_house"
      }
    },
    {
      "type": "node",
      "id": 4906710802,
      "lat": 41.1143441,
      "lon": 20.8014261,
      "tags": {
        "name": "Ohrid City Center",
        "tourism": "apartment"
      }
    },
    {
      "type": "node",
      "id": 4931101174,
      "lat": 41.1089237,
      "lon": 20.8058802,
      "tags": {
        "int_name": "Tino",
        "name": "Тино",
        "tourism": "hotel"
      }
    },
    {
      "type": "node",
      "id": 5060604723,
      "lat": 41.1226707,
      "lon": 20.8069915,
      "tags": {
        "tourism": "guest_house"
      }
    },
    {
      "type": "node",
      "id": 5060604724,
      "lat": 41.122537,
      "lon": 20.8066909,
      "tags": {
        "tourism": "guest_house"
      }
    },
    {
      "type": "node",
      "id": 5078898526,
      "lat": 41.1114873,
      "lon": 20.7939245,
      "tags": {
        "addr:housenumber": "3",
        "addr:postcode": "6000",
        "addr:street": "Ilindenska",
        "internet_access": "wlan",
        "name": "Каневче",
        "name:en": "Kanevče",
        "opening_hours": "24/7",
        "operator": "Fane",
        "phone": "+38970424304",
        "tourism": "guest_house"
      }
    },
    {
      "type": "node",
      "id": 5081900322,
      "lat": 41.1122201,
      "lon": 20.7949101,
      "tags": {
        "addr:housenumber": "64",
        "addr:postcode": "6000",
        "addr:street": "Коста Абраш",
        "email": "contact@vilasofija.com.mk",
        "internet_access": "wlan",
        "name": "Вила \"Света Софија\"",
        "name:en": "Villa St. Sofija",
        "phone": "+389 46 254 370",
        "tourism": "hostel",
        "website": "http://www.vilasofija.com.mk"
      }
    },
    {
      "type": "node",
      "id": 5477597717,
      "lat": 41.119307,
      "lon": 20.8054883,
      "tags": {
        "addr:housenumber": "8",
        "name": "Bitrak Guest House",
        "tourism": "guest_house"
      }
    },
    {
      "type": "node",
      "id": 5592326662,
      "lat": 41.1119258,
      "lon": 20.8110564,
      "tags": {
        "name": "Вила Лука",
        "name:en": "Vila Luka",
        "tourism": "guest_house"
      }
    },
    {
      "type": "node",
      "id": 5601885730,
      "lat": 41.1070136,
      "lon": 20.8152723,
      "tags": {
        "name": "Hotel International",
        "tourism": "hotel"
      }
    },
    {
      "type": "node",
      "id": 5602501222,
      "lat": 41.1131632,
      "lon": 20.7970662,
      "tags": {
        "name": "Villa Lara",
        "tourism": "apartment"
      }
    },
    {
      "type": "node",
      "id": 5602643521,
      "lat": 41.1134447,
      "lon": 20.7958948,
      "tags": {
        "name": "Villa Marto",
        "tourism": "apartment"
      }
    },
    {
      "type": "node",
      "id": 5646412521,
      "lat": 41.1138784,
      "lon": 20.7980753,
      "tags": {
        "name": "Airbnb",
        "tourism": "apartment"
      }
    },
    {
      "type": "node",
      "id": 5659613224,
      "lat": 41.1073783,
      "lon": 20.8081499,
      "tags": {
        "addr:city": "Охрид",
        "internet_access": "wlan",
        "internet_access:fee": "no",
        "name": "Hotel Villa Jordan",
        "name:mk": "Вила Јордан",
        "tourism": "hotel",
        "website": "http://villa-jordan-mk.book.direct/"
      }
    },
    {
      "type": "node",
      "id": 5703409131,
      "lat": 41.1173197,
      "lon": 20.8138456,
      "tags": {
        "addr:city": "Ohrid",
        "addr:housenumber": "396",
        "addr:street": "Питу Гули",
        "name": "Villa Ohrid Anastasia",
        "tourism": "guest_house"
      }
    },
    {
      "type": "node",
      "id": 5727993473,
      "lat": 41.1059047,
      "lon": 20.8088539,
      "tags": {
        "name": "Апартман Николина",
        "name:en": "Apartment Nikolina",
        "tourism": "apartment"
      }
    },
    {
      "type": "node",
      "id": 5762131112,
      "lat": 41.1124,
      "lon": 20.7946683,
      "tags": {
        "addr:city": "Ohrid",
        "addr:housenumber": "5",
        "addr:postcode": "6000",
        "addr:street": "Boro Sain",
        "description": "Jovanovic Guest House",
        "internet_access": "yes",
        "internet_access:fee": "yes",
        "name": "Jovanovic Guest House",
        "operator": "Jovanovic Guest House",
        "rooms": "2",
        "smoking": "outside",
        "tourism": "guest_house"
      }
    },
    {
      "type": "node",
      "id": 5770706406,
      "lat": 41.1128406,
      "lon": 20.813958,
      "tags": {
        "name": "Villa Emilija",
        "name:en": "Villa Emilija",
        "tourism": "guest_house"
      }
    },
    {
      "type": "node",
      "id": 5837780717,
      "lat": 41.0900379,
      "lon": 20.7990804,
      "tags": {
        "name": "Hotel Park",
        "tourism": "hotel"
      }
    },
    {
      "type": "node",
      "id": 5840219785,
      "lat": 41.1170005,
      "lon": 20.8088839,
      "tags": {
        "name": "Hostel Veronika",
        "tourism": "hotel"
      }
    },
    {
      "type": "node",
      "id": 5841251786,
      "lat": 41.1137277,
      "lon": 20.7977018,
      "tags": {
        "addr:city": "Ohrid",
        "addr:housenumber": "92",
        "addr:postcode": "6000",
        "addr:street": "Климентов Универзитет",
        "internet_access": "yes",
        "internet_access:fee": "no",
        "name": "Bochar Hostel",
        "tourism": "hostel"
      }
    },
    {
      "type": "node",
      "id": 5890717254,
      "lat": 41.1074189,
      "lon": 20.8079165,
      "tags": {
        "addr:housenumber": "96",
        "addr:street": "Кеј Македонија",
        "name": "Смакоски",
        "name:en": "Smakoski",
        "tourism": "guest_house"
      }
    },
    {
      "type": "node",
      "id": 5890717255,
      "lat": 41.1074146,
      "lon": 20.8073612,
      "tags": {
        "name": "Villa Denarius",
        "name:mk": "Вила Денариус",
        "tourism": "hotel"
      }
    },
    {
      "type": "node",
      "id": 5890928715,
      "lat": 41.1082348,
      "lon": 20.8064785,
      "tags": {
        "name": "Жика",
        "tourism": "guest_house"
      }
    },
    {
      "type": "node",
      "id": 5927254485,
      "lat": 41.1228547,
      "lon": 20.8025325,
      "tags": {
        "name:es": "Ljupcho",
        "tourism": "apartment"
      }
    },
    {
      "type": "node",
      "id": 5931115449,
      "lat": 41.108673,
      "lon": 20.8092556,
      "tags": {
        "name": "Дудан",
        "name:en": "Dudan",
        "tourism": "guest_house"
      }
    },
    {
      "type": "node",
      "id": 6370445971,
      "lat": 41.1132292,
      "lon": 20.7951271,
      "tags": {
        "addr:housenumber": "10",
        "name": "Apartment Ain",
        "tourism": "guest_house"
      }
    },
    {
      "type": "node",
      "id": 6393030286,
      "lat": 41.1181085,
      "lon": 20.7997644,
      "tags": {
        "name": "Montenegrin Inn",
        "tourism": "hotel"
      }
    },
    {
      "type": "node",
      "id": 6432903793,
      "lat": 41.1118273,
      "lon": 20.8056413,
      "tags": {
        "name:en": "Pink Mimi Hostel",
        "name:pl": "Pink Mimi Hostel",
        "tourism": "guest_house"
      }
    },
    {
      "type": "node",
      "id": 6470124865,
      "lat": 41.1237285,
      "lon": 20.7887576,
      "tags": {
        "addr:flats": "13",
        "addr:floor": "1",
        "addr:housenumber": "99 A2",
        "addr:street": "Булевар Туристичка",
        "name": "TA&TI",
        "tourism": "guest_house"
      }
    },
    {
      "type": "node",
      "id": 6470210057,
      "lat": 41.1213876,
      "lon": 20.8007499,
      "tags": {
        "addr:housenumber": "120a",
        "addr:street": "Дејан Војвода",
        "int_name": "Vila Arsovi",
        "name": "Вила Арсови",
        "tourism": "guest_house"
      }
    },
    {
      "type": "node",
      "id": 6581574790,
      "lat": 41.1167879,
      "lon": 20.7968031,
      "tags": {
        "name": "Center hostel",
        "tourism": "apartment"
      }
    },
    {
      "type": "node",
      "id": 6588760388,
      "lat": 41.1148214,
      "lon": 20.799667,
      "tags": {
        "internet_access": "wlan",
        "name": "Old Town Hostel",
        "tourism": "hostel"
      }
    },
    {
      "type": "node",
      "id": 6612242786,
      "lat": 41.1148373,
      "lon": 20.7996627,
      "tags": {
        "name:en": "Old town hostel",
        "tourism": "hostel"
      }
    },
    {
      "type": "node",
      "id": 6643160007,
      "lat": 41.1103782,
      "lon": 20.8080677,
      "tags": {
        "addr:postcode": "6000",
        "name": "Breeze Dream Apartment",
        "tourism": "guest_house"
      }
    },
    {
      "type": "node",
      "id": 6643181133,
      "lat": 41.1099389,
      "lon": 20.8079597,
      "tags": {
        "name": "Breeze Dream Apartment",
        "tourism": "guest_house"
      }
    },
    {
      "type": "node",
      "id": 6683575885,
      "lat": 41.1147199,
      "lon": 20.7996068,
      "tags": {
        "name:en": "Old Town Hostel",
        "tourism": "hostel"
      }
    },
    {
      "type": "node",
      "id": 6702715833,
      "lat": 41.109198,
      "lon": 20.8097851,
      "tags": {
        "addr:city": "Ohrid",
        "addr:housenumber": "54",
        "addr:street": "Slavev Planina",
        "name": "KARIA Apartments",
        "phone": "+389 70300188",
        "tourism": "guest_house"
      }
    },
    {
      "type": "node",
      "id": 6711993190,
      "lat": 41.1218586,
      "lon": 20.7943777,
      "tags": {
        "name": "Hotel Flamengo",
        "tourism": "hotel"
      }
    },
    {
      "type": "node",
      "id": 6751143560,
      "lat": 41.1103782,
      "lon": 20.8043821,
      "tags": {
        "name:en": "Apartements Tomic",
        "tourism": "apartment"
      }
    },
    {
      "type": "node",
      "id": 6754217649,
      "lat": 41.1191737,
      "lon": 20.813904,
      "tags": {
        "addr:city": "Охрид",
        "addr:housenumber": "5",
        "addr:postcode": "6000",
        "addr:street": "Александар Гушо",
        "internet_access": "yes",
        "internet_access:fee": "no",
        "name": "House Kostoski",
        "tourism": "apartment"
      }
    },
    {
      "type": "node",
      "id": 6781572391,
      "lat": 41.1174368,
      "lon": 20.8014938,
      "tags": {
        "name": "Sky Corner",
        "tourism": "hotel"
      }
    },
    {
      "type": "node",
      "id": 6828344527,
      "lat": 41.109396,
      "lon": 20.8113131,
      "tags": {
        "guest_house": "bed_and_breakfast",
        "internet_access": "wlan",
        "internet_access:fee": "no",
        "name": "Art B&B",
        "tourism": "guest_house"
      }
    },
    {
      "type": "node",
      "id": 6830542198,
      "lat": 41.1225265,
      "lon": 20.8130052,
      "tags": {
        "tourism": "hostel"
      }
    },
    {
      "type": "node",
      "id": 6830542294,
      "lat": 41.1278422,
      "lon": 20.8029354,
      "tags": {
        "name": "Vila Lovec Ohrid",
        "tourism": "hotel"
      }
    },
    {
      "type": "node",
      "id": 6831632787,
      "lat": 41.1109682,
      "lon": 20.8069062,
      "tags": {
        "name": "Bula matej",
        "tourism": "hostel"
      }
    },
    {
      "type": "node",
      "id": 6831632795,
      "lat": 41.1131079,
      "lon": 20.8121636,
      "tags": {
        "name": "Teodora",
        "phone": "+38970800631",
        "tourism": "apartment"
      }
    },
    {
      "type": "node",
      "id": 6831648788,
      "lat": 41.1154855,
      "lon": 20.812807,
      "tags": {
        "name": "Arena",
        "tourism": "hostel"
      }
    },
    {
      "type": "node",
      "id": 6831648798,
      "lat": 41.1114221,
      "lon": 20.8072371,
      "tags": {
        "name": "Relax",
        "tourism": "apartment"
      }
    },
    {
      "type": "node",
      "id": 6831648799,
      "lat": 41.1103754,
      "lon": 20.8062969,
      "tags": {
        "name:en": "Rooms",
        "tourism": "hostel"
      }
    },
    {
      "type": "node",
      "id": 6831648805,
      "lat": 41.1121557,
      "lon": 20.7970197,
      "tags": {
        "name:en": "Rooms",
        "tourism": "hostel"
      }
    },
    {
      "type": "node",
      "id": 6831648886,
      "lat": 41.1122995,
      "lon": 20.7984298,
      "tags": {
        "name": "Villa cun",
        "tourism": "hotel"
      }
    },
    {
      "type": "node",
      "id": 6833100685,
      "lat": 41.1116433,
      "lon": 20.806372,
      "tags": {
        "name": "Laguna",
        "phone": "+38975371647",
        "tourism": "apartment"
      }
    },
    {
      "type": "node",
      "id": 6833100987,
      "lat": 41.1144885,
      "lon": 20.7948983,
      "tags": {
        "name": "St. Dimitrij",
        "tourism": "apartment"
      }
    },
    {
      "type": "node",
      "id": 6833101085,
      "lat": 41.1142862,
      "lon": 20.7998194,
      "tags": {
        "name": "Central Palace Villa",
        "tourism": "hotel"
      }
    },
    {
      "type": "node",
      "id": 6833103286,
      "lat": 41.1222239,
      "lon": 20.8091091,
      "tags": {
        "name": "Village",
        "tourism": "hotel"
      }
    },
    {
      "type": "node",
      "id": 6833104285,
      "lat": 41.114856,
      "lon": 20.8065821,
      "tags": {
        "name": "Boulevard",
        "tourism": "apartment"
      }
    },
    {
      "type": "node",
      "id": 6834463389,
      "lat": 41.1138959,
      "lon": 20.8119872,
      "tags": {
        "name:en": "Rooms to rent",
        "tourism": "apartment"
      }
    },
    {
      "type": "node",
      "id": 6834463390,
      "lat": 41.1070035,
      "lon": 20.8095464,
      "tags": {
        "name": "Venco",
        "tourism": "apartment"
      }
    },
    {
      "type": "node",
      "id": 6834500688,
      "lat": 41.107422,
      "lon": 20.8095668,
      "tags": {
        "name": "Diplomat",
        "tourism": "hotel"
      }
    },
    {
      "type": "node",
      "id": 6837039497,
      "lat": 41.116424,
      "lon": 20.8097533,
      "tags": {
        "tourism": "apartment"
      }
    },
    {
      "type": "node",
      "id": 6837039888,
      "lat": 41.108265,
      "lon": 20.8064014,
      "tags": {
        "name": "Villa maki",
        "tourism": "apartment"
      }
    },
    {
      "type": "node",
      "id": 6837039889,
      "lat": 41.1174659,
      "lon": 20.795174,
      "tags": {
        "name": "Sara Ga",
        "tourism": "apartment"
      }
    },
    {
      "type": "node",
      "id": 6837039905,
      "lat": 41.108465,
      "lon": 20.8113417,
      "tags": {
        "name": "Vila Niko",
        "phone": "+38946260043",
        "tourism": "hotel"
      }
    },
    {
      "type": "node",
      "id": 6837102985,
      "lat": 41.1068156,
      "lon": 20.8096732,
      "tags": {
        "phone": "+38977654777",
        "tourism": "apartment"
      }
    },
    {
      "type": "node",
      "id": 6867737585,
      "lat": 41.1250537,
      "lon": 20.7712139,
      "tags": {
        "addr:housenumber": "389",
        "addr:postcode": "6000",
        "addr:street": "Гоце Делчев",
        "internet_access": "wlan",
        "name": "Green Space Hotel",
        "phone": "075 344 780",
        "tourism": "hotel"
      }
    },
    {
      "type": "node",
      "id": 6900758215,
      "lat": 41.1105053,
      "lon": 20.8047435,
      "tags": {
        "name": "Tomic",
        "tourism": "chalet"
      }
    },
    {
      "type": "node",
      "id": 7030465685,
      "lat": 41.110307,
      "lon": 20.8137429,
      "tags": {
        "internet_access": "wlan",
        "name:en": "Apartments Vladimir",
        "phone": "+38975259891",
        "tourism": "apartment"
      }
    },
    {
      "type": "node",
      "id": 7058905592,
      "lat": 41.1232873,
      "lon": 20.8128669,
      "tags": {
        "name": "Fero metal Helios",
        "tourism": "apartment"
      }
    },
    {
      "type": "node",
      "id": 7058905787,
      "lat": 41.126292,
      "lon": 20.8056627,
      "tags": {
        "name": "Karmen Helios",
        "tourism": "apartment"
      }
    },
    {
      "type": "node",
      "id": 7058905788,
      "lat": 41.1133302,
      "lon": 20.8098928,
      "tags": {
        "name": "mravka helios",
        "tourism": "apartment"
      }
    },
    {
      "type": "node",
      "id": 7058905789,
      "lat": 41.1137398,
      "lon": 20.8079764,
      "tags": {
        "name": "Suna Helios",
        "tourism": "apartment"
      }
    },
    {
      "type": "node",
      "id": 7093473749,
      "lat": 41.1128514,
      "lon": 20.7940292,
      "tags": {
        "addr:city": "Ohrid",
        "addr:housenumber": "15A",
        "addr:postcode": "6000",
        "addr:street": "Боро Шаин",
        "bar": "yes",
        "description": "Whether you are looking for an overnight stay, short break, or annual family holiday, Villa Varosh will enable you to recharge your batteries, and nourish your body and soul.",
        "email": "contact@villavarosh.mk",
        "internet_access": "wlan",
        "internet_access:fee": "no",
        "internet_access:ssid": "Villa Varosh",
        "name": "Villa Varosh",
        "phone": "+38970258985",
        "reservation": "yes",
        "rooms": "8",
        "smoking": "outside",
        "tourism": "hotel",
        "website": "www.villavarsoh.mk"
      }
    },
    {
      "type": "node",
      "id": 7777414987,
      "lat": 41.1075832,
      "lon": 20.8123171,
      "tags": {
        "addr:street": "АСНОМ",
        "name:en": "Apart Viktor",
        "tourism": "apartment"
      }
    },
    {
      "type": "node",
      "id": 8109416103,
      "lat": 41.1222715,
      "lon": 20.7740558,
      "tags": {
        "name": "Далјан",
        "tourism": "hotel"
      }
    },
    {
      "type": "node",
      "id": 8109471188,
      "lat": 41.1123019,
      "lon": 20.798122,
      "tags": {
        "name": "Вила Коста Охрид",
        "tourism": "hotel"
      }
    },
    {
      "type": "node",
      "id": 8109473750,
      "lat": 41.084697,
      "lon": 20.7972458,
      "tags": {
        "name": "Хотел Инекс Горица",
        "tourism": "hotel"
      }
    },
    {
      "type": "node",
      "id": 8109491319,
      "lat": 41.1122203,
      "lon": 20.7980025,
      "tags": {
        "name": "Хотел Алекандрија",
        "tourism": "hotel"
      }
    },
    {
      "type": "node",
      "id": 9161033022,
      "lat": 41.1173074,
      "lon": 20.7980495,
      "tags": {
        "tourism": "hotel"
      }
    },
    {
      "type": "node",
      "id": 9161046823,
      "lat": 41.1137488,
      "lon": 20.7941288,
      "tags": {
        "email": "oldcityhpuseohrid@gmail.com",
        "name:en": "Pld city house",
        "tourism": "apartment"
      }
    },
    {
      "type": "node",
      "id": 9161047019,
      "lat": 41.1201278,
      "lon": 20.7993748,
      "tags": {
        "name:en": "Antonio Guesthouse",
        "tourism": "hostel"
      }
    },
    {
      "type": "node",
      "id": 9163141324,
      "lat": 41.1211612,
      "lon": 20.8009152,
      "tags": {
        "addr:housenumber": "116e",
        "addr:street": "Дејан Војвода",
        "name": "Krstanoski",
        "tourism": "guest_house"
      }
    },
    {
      "type": "node",
      "id": 9200216042,
      "lat": 41.1105884,
      "lon": 20.8066817,
      "tags": {
        "tourism": "hostel"
      }
    },
    {
      "type": "node",
      "id": 9200216043,
      "lat": 41.1102317,
      "lon": 20.8055357,
      "tags": {
        "tourism": "hostel"
      }
    },
    {
      "type": "node",
      "id": 9200216044,
      "lat": 41.1160305,
      "lon": 20.7998936,
      "tags": {
        "name": "Denicia",
        "tourism": "apartment"
      }
    },
    {
      "type": "node",
      "id": 9200216153,
      "lat": 41.1120589,
      "lon": 20.8032726,
      "tags": {
        "name": "Grand Hotel Palace",
        "tourism": "hotel"
      }
    },
    {
      "type": "node",
      "id": 9200216154,
      "lat": 41.1098237,
      "lon": 20.8055406,
      "tags": {
        "name:en": "Villa Dudan",
        "tourism": "apartment"
      }
    },
    {
      "type": "node",
      "id": 9200216155,
      "lat": 41.1097513,
      "lon": 20.8050081,
      "tags": {
        "name": "Villa dea",
        "tourism": "apartment"
      }
    },
    {
      "type": "node",
      "id": 9200216332,
      "lat": 41.1152233,
      "lon": 20.7989664,
      "tags": {
        "name": "Villa bella",
        "tourism": "hostel",
        "website": "http://www.villabella.com.mk"
      }
    },
    {
      "type": "node",
      "id": 9200216541,
      "lat": 41.1097127,
      "lon": 20.805433,
      "tags": {
        "name": "Penelopa",
        "tourism": "apartment"
      }
    },
    {
      "type": "node",
      "id": 9392455870,
      "lat": 41.1123592,
      "lon": 20.8147467,
      "tags": {
        "addr:city": "Охрид",
        "addr:housenumber": "24",
        "addr:postcode": "6000",
        "addr:street": "Мирче Ацев",
        "email": "97dimitrieska@gmail.com",
        "image": "http://www.booking.com/Share-56s2Vx",
        "internet_access": "yes",
        "internet_access:fee": "customers",
        "name": "DEMETRA Apartments",
        "rooms": "3",
        "tourism": "apartment"
      }
    },
    {
      "type": "node",
      "id": 10043991409,
      "lat": 41.1077621,
      "lon": 20.8080426,
      "tags": {
        "addr:housenumber": "93",
        "addr:street": "Kej Makedonija",
        "internet_access": "wlan",
        "internet_access:fee": "no",
        "name": "Celus",
        "phone": "+389 70352138",
        "stars": "3",
        "tourism": "apartment"
      }
    }
  ]
}